GLOBALSTAR M023         
1 25621U 99004A   24271.58582649  .00000038  00000+0  79139-3 0  9993
2 25621  52.0090 133.0579 0009221 268.1524 125.3342 12.62475876182564
GLOBALSTAR M040         
1 25622U 99004B   24271.61517951 -.00000067  00000+0  20625-3 0  9991
2 25622  51.9898 136.7304 0001007 122.0333 263.8754 12.61984564182108
GLOBALSTAR M036         
1 25623U 99004C   24271.58388421 -.00000224  00000+0 -20672-2 0  9993
2 25623  51.9954 212.4749 0010398 270.6375 260.5231 11.86579798147803
GLOBALSTAR M038         
1 25624U 99004D   24271.57659648 -.00000066  00000+0  24043-3 0  9995
2 25624  51.9955 107.8494 0001178 201.3929 174.8172 12.32508738169994
GLOBALSTAR M022         
1 25649U 99012A   24271.42687729 -.00000087  00000+0  18645-5 0  9992
2 25649  52.0034 285.2010 0002451  15.3295 132.0496 12.02488404144767
GLOBALSTAR M041         
1 25650U 99012B   24271.44065123 -.00000129  00000+0 -56709-3 0  9993
2 25650  52.0007 158.6016 0002464 150.8260 209.2715 11.96659101146825
GLOBALSTAR M046         
1 25651U 99012C   24271.38467906 -.00000128  00000+0 -42957-3 0  9991
2 25651  52.0033 245.0416 0002485  82.0835  84.0765 12.09398602151862
GLOBALSTAR M037         
1 25652U 99012D   24271.50393913 -.00000064  00000+0  22095-3 0  9991
2 25652  51.9992 264.0208 0001885 334.1154 199.4677 12.62419211178099
